{
    "links": {
        "self": "http://www.neowsapp.com/rest/v1/neo/3843920?api_key=iIulBulltgU6a56xZRHN4H3l9WmuAYTsLGpBGhQ2"
    },
    "id": "3843920",
    "neo_reference_id": "3843920",
    "name": "(2019 SV1)",
    "designation": "2019 SV1",
    "nasa_jpl_url": "http://ssd.jpl.nasa.gov/sbdb.cgi?sstr=3843920",
    "absolute_magnitude_h": 23.5,
    "estimated_diameter": {
        "kilometers": {
            "estimated_diameter_min": 0.0530340723,
            "estimated_diameter_max": 0.1185877909
        },
        "meters": {
            "estimated_diameter_min": 53.0340723319,
            "estimated_diameter_max": 118.5877908577
        },
        "miles": {
            "estimated_diameter_min": 0.0329538346,
            "estimated_diameter_max": 0.0736870142
        },
        "feet": {
            "estimated_diameter_min": 173.9963058693,
            "estimated_diameter_max": 389.0675677576
        }
    },
    "is_potentially_hazardous_asteroid": false,
    "close_approach_data": [
        {
            "close_approach_date": "2019-09-03",
            "close_approach_date_full": "2019-Sep-03 08:30",
            "epoch_date_close_approach": 1567499400000,
            "relative_velocity": {
                "kilometers_per_second": "12.4067379391",
                "kilometers_per_hour": "44664.2565807881",
                "miles_per_hour": "27752.6320959902"
            },
            "miss_distance": {
                "astronomical": "0.0535256451",
                "lunar": "20.8214759439",
                "kilometers": "8007322.497335937",
                "miles": "4975519.4819404506"
            },
            "orbiting_body": "Earth"
        }
    ],
    "orbital_data": {
        "orbit_id": "3",
        "orbit_determination_date": "2019-10-07 05:57:47",
        "first_observation_date": "2019-09-20",
        "last_observation_date": "2019-10-05",
        "data_arc_in_days": 15,
        "observations_used": 25,
        "orbit_uncertainty": "8",
        "minimum_orbit_intersection": ".00755589",
        "jupiter_tisserand_invariant": "3.919",
        "epoch_osculation": "2458751.5",
        "eccentricity": ".489681685003982",
        "semi_major_axis": "1.793664303669043",
        "inclination": "6.263335532867447",
        "ascending_node_longitude": "330.5486101239426",
        "orbital_period": "877.4253440196477",
        "perihelion_distance": ".9153397451168921",
        "perihelion_argument": "319.8775784472047",
        "aphelion_distance": "2.671988862221195",
        "perihelion_time": "2458692.853949618200",
        "mean_anomaly": "24.0619652502028",
        "mean_motion": ".4102913170376108",
        "equinox": "J2000",
        "orbit_class": {
            "orbit_class_type": "APO",
            "orbit_class_description": "Near-Earth asteroid orbits which cross the Earth’s orbit similar to that of 1862 Apollo",
            "orbit_class_range": "a (semi-major axis) > 1.0 AU; q (perihelion) < 1.017 AU"
        }
    },
    "is_sentry_object": false
}